GLOBALSTAR M094         
1 39074U 13005C   24131.28851839 -.00000081  00000+0  12673-3 0  9998
2 39074  51.9969 328.8255 0001085  97.8682 262.2308 12.62265563521493
GLOBALSTAR M096         
1 39075U 13005D   24131.85592207 -.00000070  00000+0  18899-3 0  9997
2 39075  52.0098  15.2964 0001129  81.7377 278.3618 12.62265295520836
GLOBALSTAR M078         
1 39076U 13005E   24131.59250212 -.00000117  00000+0 -74857-4 0  9996
2 39076  51.9860 101.1576 0001264  23.0513 337.0410 12.62268575519078
GLOBALSTAR M095         
1 39077U 13005F   24131.61810068 -.00000120  00000+0 -91473-4 0  9998
2 39077  51.9791  98.4706 0001052  48.6570 311.4387 12.62265940519292
GLOBALSTAR M087         
1 52888U 22064A   24131.29903653 -.00000074  00000+0  10356-3 0  9992
2 52888  51.9770 340.4959 0008566 268.3154  91.6765 13.37572676 92451
